OBJECT_NAME,OBJECT_ID,EPOCH,MEAN_MOTION,ECCENTRICITY,INCLINATION,RA_OF_ASC_NODE,ARG_OF_PERICENTER,MEAN_ANOMALY,EPHEMERIS_TYPE,CLASSIFICATION_TYPE,NORAD_CAT_ID,ELEMENT_SET_NO,REV_AT_EPOCH,BSTAR,MEAN_MOTION_DOT,MEAN_MOTION_DDOT
IRIDIUM 138,2017-083B,2026-07-14T19:19:35.097312,14.34218564,.0002055,86.3999,310.1704,91.9436,268.1995,0,U,43071,999,44809,.41741E-4,.137E-5,0
IRIDIUM 116,2017-083C,2026-07-14T20:14:23.077824,14.34217711,.0002443,86.3985,310.4404,98.6620,261.4852,0,U,43072,999,44813,.38542E-4,.128E-5,0
IRIDIUM 130,2017-083D,2026-07-14T19:28:43.413312,14.34217860,.000225,86.3993,310.7316,100.6404,259.5045,0,U,43073,999,44807,.40981E-4,.135E-5,0
IRIDIUM 151,2017-083E,2026-07-14T20:32:39.224256,14.34218120,.0002239,86.3986,310.4935,95.1945,264.9507,0,U,43074,999,44810,.41712E-4,.137E-5,0
IRIDIUM 134,2017-083F,2026-07-14T19:46:59.200320,14.34218054,.0002209,86.3988,310.5151,95.1934,264.9514,0,U,43075,999,44806,.22126E-4,.82E-6,0
IRIDIUM 137,2017-083G,2026-07-14T20:05:15.268992,14.34218388,.0002683,86.3990,310.6033,93.1369,267.0134,0,U,43076,999,44813,.34296E-4,.116E-5,0
IRIDIUM 141,2017-083H,2026-07-14T19:56:07.156896,14.34217661,.0002173,86.3985,310.4349,93.1842,266.9603,0,U,43077,999,44813,.20539E-4,.77E-6,0
IRIDIUM 153,2017-083J,2026-07-14T17:06:47.405088,14.34217854,.0002108,86.3960,278.9634,94.3474,265.7962,0,U,43078,999,44922,.18234E-4,.71E-6,0
IRIDIUM 131,2017-083K,2026-07-14T19:37:51.192768,14.34218250,.0002199,86.3990,310.6280,93.5636,266.5811,0,U,43079,999,44806,.24944E-4,.9E-6,0
IRIDIUM 144,2018-030A,2026-07-14T18:56:23.436096,14.34217880,.0002376,86.3957,278.8600,97.1102,263.0364,0,U,43249,999,43409,.15732E-4,.64E-6,0
IRIDIUM 149,2018-030B,2026-07-14T17:25:03.451296,14.34218009,.0002252,86.3957,278.8532,93.2011,266.9442,0,U,43250,999,43410,.28991E-4,.101E-5,0
IRIDIUM 157,2018-030C,2026-07-14T17:52:27.652800,14.34217927,.0002249,86.3960,278.8993,94.3429,265.8024,0,U,43251,999,43408,.42872E-4,.14E-5,0
IRIDIUM 140,2018-030D,2026-07-14T18:19:51.654720,14.34217539,.0002234,86.3958,278.9038,95.9291,264.2160,0,U,43252,999,43414,.45032E-4,.146E-5,0
IRIDIUM 145,2018-030E,2026-07-14T18:01:35.382144,14.34217365,.0002523,86.3958,278.8811,100.5745,259.5735,0,U,43253,999,43407,.34131E-4,.115E-5,0
IRIDIUM 146,2018-030F,2026-07-14T17:34:11.418240,14.34217576,.0002361,86.3959,278.9013,96.5323,263.6141,0,U,43254,999,43408,.18164E-4,.71E-6,0
IRIDIUM 148,2018-030G,2026-07-14T18:28:59.713248,14.34217887,.000234,86.3960,278.9289,93.5543,266.5920,0,U,43255,999,43412,.42506E-4,.139E-5,0
IRIDIUM 142,2018-030H,2026-07-14T17:43:19.471584,14.34217976,.0002422,86.3954,278.8301,97.1767,262.9704,0,U,43256,999,43408,.24204E-4,.88E-6,0
IRIDIUM 150,2018-030J,2026-07-14T18:38:07.261152,14.34216150,.0002175,86.3957,278.9316,96.4429,263.7014,0,U,43257,999,43411,-.73377E-4,-.186E-5,0
IRIDIUM 143,2018-030K,2026-07-14T18:10:43.531392,14.34217431,.0002327,86.3962,279.0330,97.4738,262.6722,0,U,43258,999,43404,.18013E-4,.7E-6,0
IRIDIUM 161,2018-047C,2026-07-14T18:18:13.854240,14.43275539,.0002271,86.4463,76.9393,80.4132,279.7326,0,U,43478,999,42911,.38279E-4,.149E-5,0
IRIDIUM 152,2018-047D,2026-07-14T19:11:54.377088,14.34218625,.0002208,86.3936,76.7850,84.9322,275.2125,0,U,43479,999,42644,.4361E-4,.142E-5,0
IRIDIUM 147,2018-047E,2026-07-14T17:40:34.234176,14.34217274,.0002276,86.3940,76.8172,88.8757,271.2700,0,U,43480,999,42643,.22865E-4,.84E-6,0
IRIDIUM 110,2018-047F,2026-07-14T17:49:42.231360,14.34218511,.0002129,86.3941,76.9071,77.4424,282.7010,0,U,43481,999,42642,.48158E-4,.155E-5,0
IRIDIUM 162,2018-047G,2026-07-14T18:09:10.037088,14.43278373,.0002209,86.4460,76.8324,87.3080,272.8374,0,U,43482,999,42910,.52548E-4,.197E-5,0
IRIDIUM 160,2018-061A,2026-07-14T14:51:14.395104,14.34216893,.0002244,86.3940,45.3229,86.9466,273.1987,0,U,43569,999,41730,.36242E-4,.121E-5,0
IRIDIUM 166,2018-061B,2026-07-14T15:27:46.511712,14.34217579,.0002292,86.3938,45.2625,90.3867,269.7591,0,U,43570,999,41733,.37704E-5,.3E-6,0
IRIDIUM 158,2018-061C,2026-07-14T14:42:06.469632,14.34217664,.000207,86.3939,45.2856,87.0705,273.0728,0,U,43571,999,41729,.15934E-4,.64E-6,0
IRIDIUM 165,2018-061D,2026-07-14T15:18:38.501568,14.34216965,.0002167,86.3937,45.3214,91.2597,268.8847,0,U,43572,999,41732,-.16489E-5,.15E-6,0
IRIDIUM 155,2018-061E,2026-07-14T16:04:18.441696,14.34217733,.0002124,86.3939,45.1767,88.9230,271.2209,0,U,43573,999,41729,.2877E-4,.1E-5,0
IRIDIUM 154,2018-061F,2026-07-14T15:36:54.443232,14.34217501,.0002309,86.3939,45.3194,90.5055,269.6406,0,U,43574,999,41734,.1888E-4,.73E-6,0
IRIDIUM 163,2018-061G,2026-07-14T15:09:30.474144,14.34217328,.0002129,86.3936,45.2416,85.7174,274.4265,0,U,43575,999,41731,.10163E-4,.48E-6,0
